DSN-3 (KIRAMEKI-3)      
1 61733U 24198A   26176.63169810 -.00000240  00000+0  00000+0 0  9995
2 61733   0.0162 325.2634 0000924 150.3195 169.6247  1.00269763  6000
KOREASAT 6A             
1 61910U 24206A   26176.59280796  .00000000  00000+0  00000+0 0  9997
2 61910   0.0144   5.4472 0001065  76.9513 160.7668  1.00268920  5921
OPTUS-X (ADS-01)        
1 62006U 24212A   26176.62719816 -.00000133  00000+0  00000+0 0  9993
2 62006   0.0177 357.4735 0002228 131.2047 167.2575  1.00272098  5846
GSAT-N2 (GSAT-20)       
1 62028U 24214A   26176.68098809 -.00000009  00000+0  00000+0 0  9999
2 62028   0.0569 103.9687 0002203 340.9224 142.0140  1.00272039  5983
SXM-9                   
1 62259U 24234A   26174.36938516 -.00000200  00000+0  00000+0 0  9991
2 62259   0.0148 336.3648 0004895 341.8528   1.1406  1.00271796  5638
TJS-12                  
1 62374U 24246A   26175.78309433 -.00000223  00000+0  00000+0 0  9994
2 62374   0.6533 299.9327 0002109  91.7487 309.6330  1.00268446  5640
NUVIEW ALPHA            
1 62455U 24252B   26175.36783983 -.00000207  00000+0  00000+0 0  9993
2 62455   0.0534  34.2511 0001427  41.0245 246.5697  1.00270061  3898
AGILA                   
1 62456U 24252C   26175.41445057 -.00000174  00000+0  00000+0 0  9990
2 62456   0.0652 122.4429 0001526 345.1641 106.3124  1.00271371  5239
NUVIEW BRAVO            
1 62457U 24252D   26175.36783983 -.00000207  00000+0  00000+0 0  9995
2 62457   0.0745 147.1599 0002351 339.1991 195.4733  1.00272657  3863
THURAYA-4               
1 62483U 25001A   26176.17732737  .00000149  00000+0  00000+0 0  9992
2 62483   0.0269  69.4729 0000151 343.0662 328.9298  1.00274366  4251
SHIJIAN-25 (SJ-25)      
1 62485U 25002A   26176.42571132 -.00000344  00000+0  00000+0 0  9991
2 62485   5.1328  61.1186 0051294 174.7504 318.1709  1.00281333  5441
TJS-14                  
1 62804U 25017A   26176.67121413  .00000126  00000+0  00000+0 0  9999
2 62804   0.7630 296.2281 0001132 295.6669 301.9620  1.00268740  5350
SPAINSAT NG I           
1 62852U 25021A   26175.53265336  .00000159  00000+0  00000+0 0  9990
2 62852   0.0160 358.9479 0000199  59.3861  75.0858  1.00270272  4062
QZS-6 (MICHIBIKI-6)     
1 62876U 25023A   26176.60391803 -.00000223  00000+0  00000+0 0  9999
2 62876   0.0573 280.3752 0001986 187.0073 114.2719  1.00273214  5036
ZHONGXING-10R           
1 63075U 25036A   26176.59836588 -.00000341  00000+0  00000+0 0  9998
2 63075   0.0696 251.1623 0004186 248.2559 100.2216  1.00268932  5040
TJS-15                  
1 63157U 25045A   26176.16919925 -.00000255  00000+0  00000+0 0  9993
2 63157   0.2998  85.5640 0004677 302.1765  40.8403  1.00268454  4832
TIANLIAN 2-04           
1 63361U 25062A   26176.68338015 -.00000120  00000+0  00000+0 0  9992
2 63361   4.3525 274.3146 0031209  10.2885 315.2966  1.00272069  4683
TJS-16                  
1 63397U 25064A   26176.74020183 -.00000095  00000+0  00000+0 0  9995
2 63397   1.1203  81.4288 0003250 297.9133 321.6200  1.00272248  4477
TJS-17                  
1 63524U 25073A   26176.69925266 -.00000060  00000+0  00000+0 0  9999
2 63524   1.0862  82.6426 0001867 310.5861 296.8969  1.00270793  4375
TIANLIAN 2-05           
1 63662U 25084A   26175.81602639  .00000137  00000+0  00000+0 0  9997
2 63662   4.4314 279.7471 0003382 153.9556 153.4019  1.00274890  4455
TJS-19                  
1 63924U 25097A   26176.73614396 -.00000263  00000+0  00000+0 0  9998
2 63924   3.2716 317.5873 0003002 239.9657 122.5839  1.00274465  4233
CHINASAT 3B             
1 64062U 25106A   26176.80530961 -.00000035  00000+0  00000+0 0  9993
2 64062   0.0416 154.3161 0003497 332.9591 243.8697  1.00270818  4142
SXM-10                  
1 64290U 25122A   26175.71773956 -.00000008  00000+0  00000+0 0  9996
2 64290   0.0207  35.0737 0001809 336.6407  43.3689  1.00271244  3753
COSMOS 2589             
1 64467U 25131A   26176.60420108 -.00000280  00000+0  00000+0 0  9991
2 64467   0.0454  96.7993 0001106 349.5781 142.8390  1.00270322  3647
CHINASAT 9C             
1 64470U 25132A   26176.68580682 -.00000237  00000+0  00000+0 0  9990
2 64470   0.0316  95.4833 0003350 355.6468 161.7866  1.00272382  4232
MTG-S1                  
1 64723U 25143A   26175.74071355  .00000023  00000+0  00000+0 0  9993
2 64723   0.5970 340.6178 0000585 288.6722 269.7793  1.00400949  3493
DROR 1                  
1 64784U 25148A   26176.66679411 -.00000024  00000+0  00000+0 0  9996
2 64784   0.0136 311.7981 0002759  86.1628 111.8648  1.00271691  3385
SHIYAN-29               
1 65486U 25196A   26175.65659755 -.00000281  00000+0  00000+0 0  9991
2 65486  28.8296  18.4412 0012596 175.5410  50.0372  1.00283963  2957
NUSANTARA LIMA (NUSANT*)
1 65588U 25205A   26176.04830759 -.00000348  00000+0  00000+0 0  9998
2 65588   0.0367 148.1537 0000315 353.9981 261.2923  1.00269667  2796
TJS-20                  
1 66142U 25238A   26175.96698457  .00000037  00000+0  00000+0 0  9992
2 66142   5.4515 299.5256 0004587 162.2869 221.8174  1.00269888  2411
CMS-03 (GSAT-7R)        
1 66311U 25249B   26176.39704904 -.00000066  00000+0  00000+0 0  9998
2 66311   0.0251 273.9137 0002088 163.6784  52.8543  1.00270425  2439
VIASAT-3 F2             
1 66454U 25261A   26175.82000622 -.00000225  00000+0  00000+0 0  9990
2 66454   0.0049 139.4651 0000235  46.4657 303.2621  1.00272510  2873
SHIJIAN-28 (SJ-28)      
1 66549U 25277A   26176.59280796 -.00000345  00000+0  00000+0 0  9992
2 66549   4.5163 271.9966 0000826  45.4521 286.5265  1.00273811  2232
TJS-22                  
1 66990U 25290A   26175.85535466  .00000004  00000+0  00000+0 0  9993
2 66990   1.5104 286.6684 0002263 322.3827  38.3360  1.00272288  2109
TJS-23                  
1 67226U 25306A   26176.57895381  .00000030  00000+0  00000+0 0  9998
2 67226   5.5692 297.4432 0004779 180.5929 179.5701  1.00267762  1972
FENGYUN 4C              
1 67246U 25312A   26176.76526870 -.00000312  00000+0  00000+0 0  9996
2 67246   0.0549 156.0822 0000612 356.6040 169.7151  1.00271667  1867
SHIJIAN-29A (SJ-29A)    
1 67302U 25315A   26176.60476281 -.00000059  00000+0  00000+0 0  9993
2 67302   3.4193  94.9092 0003526  22.7935  86.9009  1.00271068  1702
SHIJIAN-29B (SJ-29B)    
1 67403U 25315C   26175.96915124 -.00000060  00000+0  00000+0 0  9999
2 67403   3.4168  94.9169 0004351  34.9381 205.3365  1.00270682  1767
ELEKTRO-L 5             
1 67756U 26028A   26176.02993193 -.00000088  00000+0  00000+0 0  9992
2 67756   0.2379 315.0403 0001768 182.6329 222.3362  1.00272189  1330
JAM-E JAM 1             
1 67757U 26028B   26176.53173992  .00000166  00000+0  00000+0 0  9992
2 67757   0.2425 305.0946 0000951 273.7263 280.4246  1.00280688  1201
ECHOSTAR 25             
1 68126U 26045A   26176.50315366 -.00000046  00000+0  00000+0 0  9990
2 68126   0.0145  10.0673 0001826  78.5248 256.1741  1.00271567  1076
TJS-24                  
1 69235U 26116A   26176.68537347 -.00000221  00000+0  00000+0 0  9990
2 69235   0.0393 114.9646 0000543 327.9097 167.9682  1.00271261   315
